OBJECT_NAME,OBJECT_ID,EPOCH,MEAN_MOTION,ECCENTRICITY,INCLINATION,RA_OF_ASC_NODE,ARG_OF_PERICENTER,MEAN_ANOMALY,EPHEMERIS_TYPE,CLASSIFICATION_TYPE,NORAD_CAT_ID,ELEMENT_SET_NO,REV_AT_EPOCH,BSTAR,MEAN_MOTION_DOT,MEAN_MOTION_DDOT
LEMUR-2-FINNIAN,2025-276DX,2026-07-12T00:30:26.735328,15.00597128,.00076527,97.5365,263.2359,11.2352,348.9042,0,U,66782,999,2372,.14434302E-3,.1766E-4,0
LEMUR-2-STARLIGHT,2025-276DY,2026-07-12T03:10:51.532896,14.99331400,.00148193,97.5233,262.9182,56.3195,303.9440,0,U,66783,999,3393,.32198496E-3,.3887E-4,0
LEMUR-2-TARTIFLETTE,2025-276DZ,2026-07-12T03:08:30.788160,14.99317762,.00138511,97.5237,262.9245,64.3329,295.9324,0,U,66784,999,3393,.29474152E-3,.3551E-4,0
LEMUR-2-VUKASIN,2025-276EA,2026-07-12T10:29:30.650784,15.00531099,.00034702,97.5237,263.5744,63.1538,297.0041,0,U,66785,999,3393,.21884637E-3,.2702E-4,0
LEMUR-2-HOTSPUR-TOM,2025-276EB,2026-07-11T17:23:30.411456,14.99219626,.00138345,97.5223,262.5077,56.6609,303.5937,0,U,66786,999,3380,.26466452E-3,.3174E-4,0
LEMUR-2-MYRA,2025-276EC,2026-07-11T17:39:17.777952,15.00564390,.00185373,97.5222,262.8153,64.7520,295.5623,0,U,66787,999,3389,.28884514E-3,.36E-4,0
LEMUR-2 FIKRETDENGIZ,2026-004A,2026-07-12T13:06:21.144384,14.88505387,.00103226,97.8023,191.7179,63.2919,296.9354,0,U,67363,999,2705,.26918445E-3,.2449E-4,0
TWILIGHT-1 OBJECT B,2026-004B,2026-07-12T12:21:08.778816,14.87787971,.00099096,97.8073,191.6894,53.6882,306.5248,0,U,67364,999,2705,.11075664E-3,.957E-5,0
LEMUR-2-MARIO-SOUSA,2026-004C,2026-07-12T14:14:40.569504,14.88713778,.00099743,97.7995,191.7596,64.2837,295.9409,0,U,67365,999,2707,.26742815E-3,.2445E-4,0
LEMUR-2-SONNENBLUME,2026-004E,2026-07-12T11:04:29.547840,14.88444773,.00095428,97.7992,191.6035,66.1852,294.0364,0,U,67367,999,2705,.17609793E-3,.158E-4,0
LEMUR-2-WOBLER,2026-004F,2026-07-12T14:03:17.182656,14.88686453,.00096381,97.8046,191.8741,57.3201,302.8945,0,U,67368,999,2707,.20439107E-3,.1854E-4,0
LEMUR-2-GRAM-E-SUE,2026-004H,2026-07-12T13:51:41.242752,14.88582014,.00087181,97.7985,191.7344,68.0241,292.1901,0,U,67370,999,2707,.14277773E-3,.1275E-4,0
LEMUR-2-KATIE,2026-004AA,2026-07-12T12:53:54.394368,14.90236221,.00037005,97.8041,192.2374,40.2246,319.9245,0,U,67387,999,2708,.31243607E-3,.2975E-4,0
LEMUR-2-HCS-BAZUS,2026-004AB,2026-07-12T12:51:34.328736,14.90252616,.00032174,97.8037,192.2146,39.3567,320.7884,0,U,67388,999,2708,.16705577E-3,.1566E-4,0
